{"type":"FeatureCollection","features":[{"type":"Feature","properties":{"name":"Vatican City","adm0cap":1,"pop_max":832,"adm0name":"Vatican"},"geometry":{"type":"Point","coordinates":[12.453387,41.903282]}},{"type":"Feature","properties":{"name":"San Marino","adm0cap":1,"pop_max":29579,"adm0name":"San Marino"},"geometry":{"type":"Point","coordinates":[12.44177,43.936096]}},{"type":"Feature","properties":{"name":"Vaduz","adm0cap":1,"pop_max":36281,"adm0name":"Liechtenstein"},"geometry":{"type":"Point","coordinates":[9.51667,47.133724]}},{"type":"Feature","properties":{"name":"Luxembourg","adm0cap":1,"pop_max":107260,"adm0name":"Luxembourg"},"geometry":{"type":"Point","coordinates":[6.130003,49.61166]}},{"type":"Feature","properties":{"name":"Palikir","adm0cap":1,"pop_max":4645,"adm0name":"Federated States of Micronesia"},"geometry":{"type":"Point","coordinates":[158.149974,6.916644]}},{"type":"Feature","properties":{"name":"Majuro","adm0cap":1,"pop_max":25400,"adm0name":"Marshall Islands"},"geometry":{"type":"Point","coordinates":[171.38,7.103004]}},{"type":"Feature","properties":{"name":"Funafuti","adm0cap":1,"pop_max":4749,"adm0name":"Tuvalu"},"geometry":{"type":"Point","coordinates":[179.216647,-8.516652]}},{"type":"Feature","properties":{"name":"Melekeok","adm0cap":1,"pop_max":7026,"adm0name":"Palau"},"geometry":{"type":"Point","coordinates":[134.626549,7.487396]}},{"type":"Feature","properties":{"name":"Monaco","adm0cap":1,"pop_max":36371,"adm0name":"Monaco"},"geometry":{"type":"Point","coordinates":[7.406913,43.739646]}},{"type":"Feature","properties":{"name":"Tarawa","adm0cap":1,"pop_max":28802,"adm0name":"Kiribati"},"geometry":{"type":"Point","coordinates":[173.017571,1.338188]}},{"type":"Feature","properties":{"name":"Moroni","adm0cap":1,"pop_max":128698,"adm0name":"Comoros"},"geometry":{"type":"Point","coordinates":[43.240244,-11.704158]}},{"type":"Feature","properties":{"name":"Andorra","adm0cap":1,"pop_max":53998,"adm0name":"Andorra"},"geometry":{"type":"Point","coordinates":[1.526594,42.510753]}},{"type":"Feature","properties":{"name":"Port-of-Spain","adm0cap":1,"pop_max":294934,"adm0name":"Trinidad and Tobago"},"geometry":{"type":"Point","coordinates":[-61.517031,10.651997]}},{"type":"Feature","properties":{"name":"Kigali","adm0cap":1,"pop_max":860000,"adm0name":"Rwanda"},"geometry":{"type":"Point","coordinates":[30.058586,-1.951644]}},{"type":"Feature","properties":{"name":"Mbabane","adm0cap":1,"pop_max":90138,"adm0name":"eSwatini"},"geometry":{"type":"Point","coordinates":[31.133335,-26.316651]}},{"type":"Feature","properties":{"name":"The Hague","adm0cap":0,"pop_max":1406000,"adm0name":"Netherlands"},"geometry":{"type":"Point","coordinates":[4.269961,52.080037]}},{"type":"Feature","properties":{"name":"Ljubljana","adm0cap":1,"pop_max":314807,"adm0name":"Slovenia"},"geometry":{"type":"Point","coordinates":[14.514969,46.055288]}},{"type":"Feature","properties":{"name":"Bratislava","adm0cap":1,"pop_max":423737,"adm0name":"Slovakia"},"geometry":{"type":"Point","coordinates":[17.116981,48.150018]}},{"type":"Feature","properties":{"name":"Doha","adm0cap":1,"pop_max":1450000,"adm0name":"Qatar"},"geometry":{"type":"Point","coordinates":[51.532968,25.286556]}},{"type":"Feature","properties":{"name":"Podgorica","adm0cap":1,"pop_max":145850,"adm0name":"Montenegro"},"geometry":{"type":"Point","coordinates":[19.266307,42.465972]}},{"type":"Feature","properties":{"name":"Bern","adm0cap":1,"pop_max":275329,"adm0name":"Switzerland"},"geometry":{"type":"Point","coordinates":[7.466976,46.916683]}},{"type":"Feature","properties":{"name":"Pristina","adm0cap":1,"pop_max":465186,"adm0name":"Kosovo"},"geometry":{"type":"Point","coordinates":[21.165984,42.66671]}},{"type":"Feature","properties":{"name":"Roseau","adm0cap":1,"pop_max":23336,"adm0name":"Dominica"},"geometry":{"type":"Point","coordinates":[-61.387013,15.301016]}},{"type":"Feature","properties":{"name":"Djibouti","adm0cap":1,"pop_max":923000,"adm0name":"Djibouti"},"geometry":{"type":"Point","coordinates":[43.148002,11.595014]}},{"type":"Feature","properties":{"name":"Kyoto","adm0cap":0,"pop_max":1805000,"adm0name":"Japan"},"geometry":{"type":"Point","coordinates":[135.748052,35.031938]}},{"type":"Feature","properties":{"name":"Banjul","adm0cap":1,"pop_max":43094,"adm0name":"The Gambia"},"geometry":{"type":"Point","coordinates":[-16.591701,13.453876]}},{"type":"Feature","properties":{"name":"Skopje","adm0cap":1,"pop_max":494087,"adm0name":"North Macedonia"},"geometry":{"type":"Point","coordinates":[21.433461,42.000006]}},{"type":"Feature","properties":{"name":"Bridgetown","adm0cap":1,"pop_max":191152,"adm0name":"Barbados"},"geometry":{"type":"Point","coordinates":[-59.616527,13.102003]}},{"type":"Feature","properties":{"name":"Bujumbura","adm0cap":1,"pop_max":331700,"adm0name":"Burundi"},"geometry":{"type":"Point","coordinates":[29.360006,-3.376087]}},{"type":"Feature","properties":{"name":"Kingstown","adm0cap":1,"pop_max":49485,"adm0name":"Saint Vincent and the Grenadines"},"geometry":{"type":"Point","coordinates":[-61.220236,13.155756]}},{"type":"Feature","properties":{"name":"Castries","adm0cap":1,"pop_max":37963,"adm0name":"Saint Lucia"},"geometry":{"type":"Point","coordinates":[-60.992875,14.007875]}},{"type":"Feature","properties":{"name":"Basseterre","adm0cap":1,"pop_max":21887,"adm0name":"Saint Kitts and Nevis"},"geometry":{"type":"Point","coordinates":[-62.717009,17.302031]}},{"type":"Feature","properties":{"name":"Port Louis","adm0cap":1,"pop_max":595491,"adm0name":"Mauritius"},"geometry":{"type":"Point","coordinates":[57.499994,-20.166639]}},{"type":"Feature","properties":{"name":"Saint George's","adm0cap":1,"pop_max":33734,"adm0name":"Grenada"},"geometry":{"type":"Point","coordinates":[-61.741643,12.052633]}},{"type":"Feature","properties":{"name":"Manama","adm0cap":1,"pop_max":563920,"adm0name":"Bahrain"},"geometry":{"type":"Point","coordinates":[50.583052,26.236136]}},{"type":"Feature","properties":{"name":"Saint John's","adm0cap":1,"pop_max":35499,"adm0name":"Antigua and Barbuda"},"geometry":{"type":"Point","coordinates":[-61.850034,17.118036]}},{"type":"Feature","properties":{"name":"Montevideo","adm0cap":1,"pop_max":1513000,"adm0name":"Uruguay"},"geometry":{"type":"Point","coordinates":[-56.186823,-34.905376]}},{"type":"Feature","properties":{"name":"Lomé","adm0cap":1,"pop_max":1452000,"adm0name":"Togo"},"geometry":{"type":"Point","coordinates":[1.220811,6.133883]}},{"type":"Feature","properties":{"name":"Tunis","adm0cap":1,"pop_max":2412500,"adm0name":"Tunisia"},"geometry":{"type":"Point","coordinates":[10.179678,36.802778]}},{"type":"Feature","properties":{"name":"Abu Dhabi","adm0cap":1,"pop_max":603492,"adm0name":"United Arab Emirates"},"geometry":{"type":"Point","coordinates":[54.366593,24.466684]}},{"type":"Feature","properties":{"name":"Ashgabat","adm0cap":1,"pop_max":727700,"adm0name":"Turkmenistan"},"geometry":{"type":"Point","coordinates":[58.383299,37.949995]}},{"type":"Feature","properties":{"name":"Lusaka","adm0cap":1,"pop_max":1328000,"adm0name":"Zambia"},"geometry":{"type":"Point","coordinates":[28.281382,-15.414698]}},{"type":"Feature","properties":{"name":"Harare","adm0cap":1,"pop_max":1572000,"adm0name":"Zimbabwe"},"geometry":{"type":"Point","coordinates":[31.042764,-17.815844]}},{"type":"Feature","properties":{"name":"Dili","adm0cap":1,"pop_max":234331,"adm0name":"East Timor"},"geometry":{"type":"Point","coordinates":[125.579456,-8.559388]}},{"type":"Feature","properties":{"name":"Port Vila","adm0cap":1,"pop_max":44040,"adm0name":"Vanuatu"},"geometry":{"type":"Point","coordinates":[168.316641,-17.73335]}},{"type":"Feature","properties":{"name":"Tegucigalpa","adm0cap":1,"pop_max":946000,"adm0name":"Honduras"},"geometry":{"type":"Point","coordinates":[-87.219475,14.103991]}},{"type":"Feature","properties":{"name":"Georgetown","adm0cap":1,"pop_max":264350,"adm0name":"Guyana"},"geometry":{"type":"Point","coordinates":[-58.167029,6.801974]}},{"type":"Feature","properties":{"name":"Reykjavík","adm0cap":1,"pop_max":166212,"adm0name":"Iceland"},"geometry":{"type":"Point","coordinates":[-21.936546,64.143459]}},{"type":"Feature","properties":{"name":"Port-au-Prince","adm0cap":1,"pop_max":1998000,"adm0name":"Haiti"},"geometry":{"type":"Point","coordinates":[-72.33798,18.54297]}},{"type":"Feature","properties":{"name":"Kampala","adm0cap":1,"pop_max":1420000,"adm0name":"Uganda"},"geometry":{"type":"Point","coordinates":[32.581378,0.318605]}},{"type":"Feature","properties":{"name":"Paramaribo","adm0cap":1,"pop_max":254169,"adm0name":"Suriname"},"geometry":{"type":"Point","coordinates":[-55.167031,5.83503]}},{"type":"Feature","properties":{"name":"Niamey","adm0cap":1,"pop_max":915000,"adm0name":"Niger"},"geometry":{"type":"Point","coordinates":[2.11471,13.518652]}},{"type":"Feature","properties":{"name":"Dushanbe","adm0cap":1,"pop_max":1086244,"adm0name":"Tajikistan"},"geometry":{"type":"Point","coordinates":[68.773879,38.560035]}},{"type":"Feature","properties":{"name":"Asunción","adm0cap":1,"pop_max":1870000,"adm0name":"Paraguay"},"geometry":{"type":"Point","coordinates":[-57.625834,-25.290671]}},{"type":"Feature","properties":{"name":"Managua","adm0cap":1,"pop_max":920000,"adm0name":"Nicaragua"},"geometry":{"type":"Point","coordinates":[-86.270437,12.154962]}},{"type":"Feature","properties":{"name":"Freetown","adm0cap":1,"pop_max":827000,"adm0name":"Sierra Leone"},"geometry":{"type":"Point","coordinates":[-13.236162,8.471957]}},{"type":"Feature","properties":{"name":"Islamabad","adm0cap":1,"pop_max":780000,"adm0name":"Pakistan"},"geometry":{"type":"Point","coordinates":[73.08063,33.689368]}},{"type":"Feature","properties":{"name":"Kathmandu","adm0cap":1,"pop_max":895000,"adm0name":"Nepal"},"geometry":{"type":"Point","coordinates":[85.314696,27.718638]}},{"type":"Feature","properties":{"name":"Bloemfontein","adm0cap":1,"pop_max":463064,"adm0name":"South Africa"},"geometry":{"type":"Point","coordinates":[26.229913,-29.119994]}},{"type":"Feature","properties":{"name":"Pretoria","adm0cap":1,"pop_max":1338000,"adm0name":"South Africa"},"geometry":{"type":"Point","coordinates":[28.227483,-25.704975]}},{"type":"Feature","properties":{"name":"Port Moresby","adm0cap":1,"pop_max":283733,"adm0name":"Papua New Guinea"},"geometry":{"type":"Point","coordinates":[147.192504,-9.464708]}},{"type":"Feature","properties":{"name":"Honiara","adm0cap":1,"pop_max":76328,"adm0name":"Solomon Islands"},"geometry":{"type":"Point","coordinates":[159.949766,-9.437994]}},{"type":"Feature","properties":{"name":"Panama City","adm0cap":1,"pop_max":1281000,"adm0name":"Panama"},"geometry":{"type":"Point","coordinates":[-79.534983,8.969963]}},{"type":"Feature","properties":{"name":"Rabat","adm0cap":1,"pop_max":1705000,"adm0name":"Morocco"},"geometry":{"type":"Point","coordinates":[-6.836408,34.025307]}},{"type":"Feature","properties":{"name":"Chișinău","adm0cap":1,"pop_max":688134,"adm0name":"Moldova"},"geometry":{"type":"Point","coordinates":[28.857711,47.005024]}},{"type":"Feature","properties":{"name":"Maputo","adm0cap":1,"pop_max":1446000,"adm0name":"Mozambique"},"geometry":{"type":"Point","coordinates":[32.587217,-25.953332]}},{"type":"Feature","properties":{"name":"Mogadishu","adm0cap":1,"pop_max":1100000,"adm0name":"Somalia"},"geometry":{"type":"Point","coordinates":[45.364732,2.068627]}},{"type":"Feature","properties":{"name":"Muscat","adm0cap":1,"pop_max":734697,"adm0name":"Oman"},"geometry":{"type":"Point","coordinates":[58.378311,23.585179]}},{"type":"Feature","properties":{"name":"Colombo","adm0cap":1,"pop_max":217000,"adm0name":"Sri Lanka"},"geometry":{"type":"Point","coordinates":[79.857751,6.931966]}},{"type":"Feature","properties":{"name":"Ulaanbaatar","adm0cap":1,"pop_max":885000,"adm0name":"Mongolia"},"geometry":{"type":"Point","coordinates":[106.91467,47.918619]}},{"type":"Feature","properties":{"name":"Windhoek","adm0cap":1,"pop_max":268132,"adm0name":"Namibia"},"geometry":{"type":"Point","coordinates":[17.083546,-22.570006]}},{"type":"Feature","properties":{"name":"Abuja","adm0cap":1,"pop_max":1576000,"adm0name":"Nigeria"},"geometry":{"type":"Point","coordinates":[7.489505,9.05462]}},{"type":"Feature","properties":{"name":"Bissau","adm0cap":1,"pop_max":403339,"adm0name":"Guinea Bissau"},"geometry":{"type":"Point","coordinates":[-15.598361,11.865024]}},{"type":"Feature","properties":{"name":"Amman","adm0cap":1,"pop_max":1060000,"adm0name":"Jordan"},"geometry":{"type":"Point","coordinates":[35.931354,31.951971]}},{"type":"Feature","properties":{"name":"Vilnius","adm0cap":1,"pop_max":542366,"adm0name":"Lithuania"},"geometry":{"type":"Point","coordinates":[25.316635,54.683366]}},{"type":"Feature","properties":{"name":"Riga","adm0cap":1,"pop_max":742572,"adm0name":"Latvia"},"geometry":{"type":"Point","coordinates":[24.099965,56.950024]}},{"type":"Feature","properties":{"name":"Bishkek","adm0cap":1,"pop_max":837000,"adm0name":"Kyrgyzstan"},"geometry":{"type":"Point","coordinates":[74.583258,42.875025]}},{"type":"Feature","properties":{"name":"Maseru","adm0cap":1,"pop_max":361324,"adm0name":"Lesotho"},"geometry":{"type":"Point","coordinates":[27.483273,-29.316674]}},{"type":"Feature","properties":{"name":"Antananarivo","adm0cap":1,"pop_max":1697000,"adm0name":"Madagascar"},"geometry":{"type":"Point","coordinates":[47.514678,-18.914691]}},{"type":"Feature","properties":{"name":"Quito","adm0cap":1,"pop_max":1701000,"adm0name":"Ecuador"},"geometry":{"type":"Point","coordinates":[-78.501997,-0.213042]}},{"type":"Feature","properties":{"name":"San José","adm0cap":1,"pop_max":1284000,"adm0name":"Costa Rica"},"geometry":{"type":"Point","coordinates":[-84.078814,9.930371]}},{"type":"Feature","properties":{"name":"San Salvador","adm0cap":1,"pop_max":1433000,"adm0name":"El Salvador"},"geometry":{"type":"Point","coordinates":[-89.215576,13.70328]}},{"type":"Feature","properties":{"name":"Kingston","adm0cap":1,"pop_max":937700,"adm0name":"Jamaica"},"geometry":{"type":"Point","coordinates":[-76.767434,17.977077]}},{"type":"Feature","properties":{"name":"N'Djamena","adm0cap":1,"pop_max":989000,"adm0name":"Chad"},"geometry":{"type":"Point","coordinates":[15.047202,12.115042]}},{"type":"Feature","properties":{"name":"Malabo","adm0cap":1,"pop_max":155963,"adm0name":"Equatorial Guinea"},"geometry":{"type":"Point","coordinates":[8.783278,3.750015]}},{"type":"Feature","properties":{"name":"Asmara","adm0cap":1,"pop_max":620802,"adm0name":"Eritrea"},"geometry":{"type":"Point","coordinates":[38.933324,15.333339]}},{"type":"Feature","properties":{"name":"Zagreb","adm0cap":1,"pop_max":722526,"adm0name":"Croatia"},"geometry":{"type":"Point","coordinates":[15.999995,45.800007]}},{"type":"Feature","properties":{"name":"Tallinn","adm0cap":1,"pop_max":394024,"adm0name":"Estonia"},"geometry":{"type":"Point","coordinates":[24.728041,59.433877]}},{"type":"Feature","properties":{"name":"Lilongwe","adm0cap":1,"pop_max":646750,"adm0name":"Malawi"},"geometry":{"type":"Point","coordinates":[33.783302,-13.983295]}},{"type":"Feature","properties":{"name":"Guatemala City","adm0cap":1,"pop_max":1024000,"adm0name":"Guatemala"},"geometry":{"type":"Point","coordinates":[-90.528911,14.623081]}},{"type":"Feature","properties":{"name":"Libreville","adm0cap":1,"pop_max":578156,"adm0name":"Gabon"},"geometry":{"type":"Point","coordinates":[9.457965,0.385389]}},{"type":"Feature","properties":{"name":"Suva","adm0cap":1,"pop_max":175399,"adm0name":"Fiji"},"geometry":{"type":"Point","coordinates":[178.441707,-18.133016]}},{"type":"Feature","properties":{"name":"Nouakchott","adm0cap":1,"pop_max":742144,"adm0name":"Mauritania"},"geometry":{"type":"Point","coordinates":[-15.97534,18.086427]}},{"type":"Feature","properties":{"name":"Bamako","adm0cap":1,"pop_max":1494000,"adm0name":"Mali"},"geometry":{"type":"Point","coordinates":[-8.001985,12.65196]}},{"type":"Feature","properties":{"name":"Beirut","adm0cap":1,"pop_max":1846000,"adm0name":"Lebanon"},"geometry":{"type":"Point","coordinates":[35.507762,33.873921]}},{"type":"Feature","properties":{"name":"Tbilisi","adm0cap":1,"pop_max":1100000,"adm0name":"Georgia"},"geometry":{"type":"Point","coordinates":[44.78885,41.726956]}},{"type":"Feature","properties":{"name":"Nur-Sultan","adm0cap":1,"pop_max":345604,"adm0name":"Kazakhstan"},"geometry":{"type":"Point","coordinates":[71.427774,51.181125]}},{"type":"Feature","properties":{"name":"Vientiane","adm0cap":1,"pop_max":754000,"adm0name":"Laos"},"geometry":{"type":"Point","coordinates":[102.59998,17.966693]}},{"type":"Feature","properties":{"name":"Brazzaville","adm0cap":1,"pop_max":1355000,"adm0name":"Congo (Brazzaville)"},"geometry":{"type":"Point","coordinates":[15.282744,-4.25724]}},{"type":"Feature","properties":{"name":"Conakry","adm0cap":1,"pop_max":1494000,"adm0name":"Guinea"},"geometry":{"type":"Point","coordinates":[-13.682181,9.533469]}},{"type":"Feature","properties":{"name":"Yamoussoukro","adm0cap":1,"pop_max":206499,"adm0name":"Ivory Coast"},"geometry":{"type":"Point","coordinates":[-5.275503,6.818381]}},{"type":"Feature","properties":{"name":"Ottawa","adm0cap":1,"pop_max":1145000,"adm0name":"Canada"},"geometry":{"type":"Point","coordinates":[-75.701961,45.418643]}},{"type":"Feature","properties":{"name":"Belgrade","adm0cap":1,"pop_max":1099000,"adm0name":"Serbia"},"geometry":{"type":"Point","coordinates":[20.466045,44.820591]}},{"type":"Feature","properties":{"name":"Bandar Seri Begawan","adm0cap":1,"pop_max":296500,"adm0name":"Brunei"},"geometry":{"type":"Point","coordinates":[114.933284,4.883331]}},{"type":"Feature","properties":{"name":"Sucre","adm0cap":1,"pop_max":224838,"adm0name":"Bolivia"},"geometry":{"type":"Point","coordinates":[-65.259516,-19.040971]}},{"type":"Feature","properties":{"name":"Belmopan","adm0cap":1,"pop_max":15220,"adm0name":"Belize"},"geometry":{"type":"Point","coordinates":[-88.767073,17.252033]}},{"type":"Feature","properties":{"name":"Bangui","adm0cap":1,"pop_max":831925,"adm0name":"Central African Republic"},"geometry":{"type":"Point","coordinates":[18.558288,4.366644]}},{"type":"Feature","properties":{"name":"Yaoundé","adm0cap":1,"pop_max":1611000,"adm0name":"Cameroon"},"geometry":{"type":"Point","coordinates":[11.514705,3.868647]}},{"type":"Feature","properties":{"name":"Tirana","adm0cap":1,"pop_max":895350,"adm0name":"Albania"},"geometry":{"type":"Point","coordinates":[19.818883,41.327541]}},{"type":"Feature","properties":{"name":"Yerevan","adm0cap":1,"pop_max":1102000,"adm0name":"Armenia"},"geometry":{"type":"Point","coordinates":[44.511606,40.183097]}},{"type":"Feature","properties":{"name":"Baku","adm0cap":1,"pop_max":2122300,"adm0name":"Azerbaijan"},"geometry":{"type":"Point","coordinates":[49.860271,40.397218]}},{"type":"Feature","properties":{"name":"Phnom Penh","adm0cap":1,"pop_max":1466000,"adm0name":"Cambodia"},"geometry":{"type":"Point","coordinates":[104.914689,11.551976]}},{"type":"Feature","properties":{"name":"La Paz","adm0cap":1,"pop_max":1590000,"adm0name":"Bolivia"},"geometry":{"type":"Point","coordinates":[-68.151931,-16.496028]}},{"type":"Feature","properties":{"name":"Cotonou","adm0cap":1,"pop_max":762000,"adm0name":"Benin"},"geometry":{"type":"Point","coordinates":[2.404355,6.36298]}},{"type":"Feature","properties":{"name":"Sofia","adm0cap":1,"pop_max":1185000,"adm0name":"Bulgaria"},"geometry":{"type":"Point","coordinates":[23.314708,42.685295]}},{"type":"Feature","properties":{"name":"Minsk","adm0cap":1,"pop_max":1805000,"adm0name":"Belarus"},"geometry":{"type":"Point","coordinates":[27.564681,53.901923]}},{"type":"Feature","properties":{"name":"Thimphu","adm0cap":1,"pop_max":98676,"adm0name":"Bhutan"},"geometry":{"type":"Point","coordinates":[89.639014,27.472986]}},{"type":"Feature","properties":{"name":"Gaborone","adm0cap":1,"pop_max":208411,"adm0name":"Botswana"},"geometry":{"type":"Point","coordinates":[25.911948,-24.646314]}},{"type":"Feature","properties":{"name":"Canberra","adm0cap":1,"pop_max":327700,"adm0name":"Australia"},"geometry":{"type":"Point","coordinates":[149.129026,-35.283029]}},{"type":"Feature","properties":{"name":"Ouagadougou","adm0cap":1,"pop_max":1149000,"adm0name":"Burkina Faso"},"geometry":{"type":"Point","coordinates":[-1.52667,12.372262]}},{"type":"Feature","properties":{"name":"Sarajevo","adm0cap":1,"pop_max":696731,"adm0name":"Bosnia and Herzegovina"},"geometry":{"type":"Point","coordinates":[18.383002,43.850022]}},{"type":"Feature","properties":{"name":"Naypyidaw","adm0cap":1,"pop_max":930000,"adm0name":"Myanmar"},"geometry":{"type":"Point","coordinates":[96.116673,19.768503]}},{"type":"Feature","properties":{"name":"Nuku'alofa","adm0cap":1,"pop_max":42620,"adm0name":"Tonga"},"geometry":{"type":"Point","coordinates":[-175.220564,-21.138512]}},{"type":"Feature","properties":{"name":"Hargeisa","adm0cap":1,"pop_max":477876,"adm0name":"Somaliland"},"geometry":{"type":"Point","coordinates":[44.06531,9.560022]}},{"type":"Feature","properties":{"name":"Victoria","adm0cap":1,"pop_max":33576,"adm0name":"Seychelles"},"geometry":{"type":"Point","coordinates":[55.44999,-4.616632]}},{"type":"Feature","properties":{"name":"São Tomé","adm0cap":1,"pop_max":88219,"adm0name":"Sao Tome and Principe"},"geometry":{"type":"Point","coordinates":[6.72965,0.337466]}},{"type":"Feature","properties":{"name":"Apia","adm0cap":1,"pop_max":61916,"adm0name":"Samoa"},"geometry":{"type":"Point","coordinates":[-171.768599,-13.835715]}},{"type":"Feature","properties":{"name":"Valletta","adm0cap":1,"pop_max":368250,"adm0name":"Malta"},"geometry":{"type":"Point","coordinates":[14.514711,35.899732]}},{"type":"Feature","properties":{"name":"Malé","adm0cap":1,"pop_max":112927,"adm0name":"Maldives"},"geometry":{"type":"Point","coordinates":[73.508901,4.172037]}},{"type":"Feature","properties":{"name":"Jerusalem","adm0cap":1,"pop_max":1029300,"adm0name":"Israel"},"geometry":{"type":"Point","coordinates":[35.206626,31.778408]}},{"type":"Feature","properties":{"name":"Praia","adm0cap":1,"pop_max":113364,"adm0name":"Cape Verde"},"geometry":{"type":"Point","coordinates":[-23.516689,14.916698]}},{"type":"Feature","properties":{"name":"Nassau","adm0cap":1,"pop_max":227940,"adm0name":"The Bahamas"},"geometry":{"type":"Point","coordinates":[-77.350044,25.08339]}},{"type":"Feature","properties":{"name":"Nicosia","adm0cap":1,"pop_max":224300,"adm0name":"Cyprus"},"geometry":{"type":"Point","coordinates":[33.366635,35.166677]}},{"type":"Feature","properties":{"name":"Wellington","adm0cap":1,"pop_max":393400,"adm0name":"New Zealand"},"geometry":{"type":"Point","coordinates":[174.777201,-41.292068]}},{"type":"Feature","properties":{"name":"Hanoi","adm0cap":1,"pop_max":4378000,"adm0name":"Vietnam"},"geometry":{"type":"Point","coordinates":[105.848068,21.035273]}},{"type":"Feature","properties":{"name":"Ankara","adm0cap":1,"pop_max":3716000,"adm0name":"Turkey"},"geometry":{"type":"Point","coordinates":[32.862446,39.929184]}},{"type":"Feature","properties":{"name":"Budapest","adm0cap":1,"pop_max":1679000,"adm0name":"Hungary"},"geometry":{"type":"Point","coordinates":[19.081375,47.501952]}},{"type":"Feature","properties":{"name":"Sanaa","adm0cap":1,"pop_max":2008000,"adm0name":"Yemen"},"geometry":{"type":"Point","coordinates":[44.204648,15.356679]}},{"type":"Feature","properties":{"name":"Bucharest","adm0cap":1,"pop_max":1942000,"adm0name":"Romania"},"geometry":{"type":"Point","coordinates":[26.098001,44.435318]}},{"type":"Feature","properties":{"name":"Damascus","adm0cap":1,"pop_max":2466000,"adm0name":"Syria"},"geometry":{"type":"Point","coordinates":[36.29805,33.50198]}},{"type":"Feature","properties":{"name":"Lisbon","adm0cap":1,"pop_max":2812000,"adm0name":"Portugal"},"geometry":{"type":"Point","coordinates":[-9.146812,38.724669]}},{"type":"Feature","properties":{"name":"Khartoum","adm0cap":1,"pop_max":4754000,"adm0name":"Sudan"},"geometry":{"type":"Point","coordinates":[32.532233,15.590024]}},{"type":"Feature","properties":{"name":"Oslo","adm0cap":1,"pop_max":835000,"adm0name":"Norway"},"geometry":{"type":"Point","coordinates":[10.748033,59.918636]}},{"type":"Feature","properties":{"name":"Warsaw","adm0cap":1,"pop_max":1707000,"adm0name":"Poland"},"geometry":{"type":"Point","coordinates":[21.005347,52.230872]}},{"type":"Feature","properties":{"name":"Pyongyang","adm0cap":1,"pop_max":3300000,"adm0name":"North Korea"},"geometry":{"type":"Point","coordinates":[125.752745,39.021385]}},{"type":"Feature","properties":{"name":"Dar es Salaam","adm0cap":1,"pop_max":2930000,"adm0name":"Tanzania"},"geometry":{"type":"Point","coordinates":[39.266396,-6.798067]}},{"type":"Feature","properties":{"name":"Dublin","adm0cap":1,"pop_max":1059000,"adm0name":"Ireland"},"geometry":{"type":"Point","coordinates":[-6.25698,53.346731]}},{"type":"Feature","properties":{"name":"Monrovia","adm0cap":1,"pop_max":1041000,"adm0name":"Liberia"},"geometry":{"type":"Point","coordinates":[-10.79966,6.314582]}},{"type":"Feature","properties":{"name":"Kuala Lumpur","adm0cap":1,"pop_max":1448000,"adm0name":"Malaysia"},"geometry":{"type":"Point","coordinates":[101.688699,3.139797]}},{"type":"Feature","properties":{"name":"Havana","adm0cap":1,"pop_max":2174000,"adm0name":"Cuba"},"geometry":{"type":"Point","coordinates":[-82.366128,23.133905]}},{"type":"Feature","properties":{"name":"Prague","adm0cap":1,"pop_max":1162000,"adm0name":"Czechia"},"geometry":{"type":"Point","coordinates":[14.422939,50.086967]}},{"type":"Feature","properties":{"name":"Kuwait City","adm0cap":1,"pop_max":2063000,"adm0name":"Kuwait"},"geometry":{"type":"Point","coordinates":[47.976355,29.371664]}},{"type":"Feature","properties":{"name":"Santo Domingo","adm0cap":1,"pop_max":2154000,"adm0name":"Dominican Republic"},"geometry":{"type":"Point","coordinates":[-69.929742,18.470745]}},{"type":"Feature","properties":{"name":"Accra","adm0cap":1,"pop_max":2121000,"adm0name":"Ghana"},"geometry":{"type":"Point","coordinates":[-0.218662,5.55198]}},{"type":"Feature","properties":{"name":"Tripoli","adm0cap":1,"pop_max":2189000,"adm0name":"Libya"},"geometry":{"type":"Point","coordinates":[13.180012,32.8925]}},{"type":"Feature","properties":{"name":"Tel Aviv","adm0cap":0,"pop_max":3112000,"adm0name":"Israel"},"geometry":{"type":"Point","coordinates":[34.768066,32.081937]}},{"type":"Feature","properties":{"name":"Helsinki","adm0cap":1,"pop_max":1115000,"adm0name":"Finland"},"geometry":{"type":"Point","coordinates":[24.932457,60.163804]}},{"type":"Feature","properties":{"name":"København","adm0cap":1,"pop_max":1085000,"adm0name":"Denmark"},"geometry":{"type":"Point","coordinates":[12.56154,55.68051]}},{"type":"Feature","properties":{"name":"Abidjan","adm0cap":1,"pop_max":3802000,"adm0name":"Ivory Coast"},"geometry":{"type":"Point","coordinates":[-4.020207,5.323126]}},{"type":"Feature","properties":{"name":"Brasília","adm0cap":1,"pop_max":3716996,"adm0name":"Brazil"},"geometry":{"type":"Point","coordinates":[-47.917998,-15.781394]}},{"type":"Feature","properties":{"name":"Brussels","adm0cap":1,"pop_max":1743000,"adm0name":"Belgium"},"geometry":{"type":"Point","coordinates":[4.331371,50.835263]}},{"type":"Feature","properties":{"name":"Dhaka","adm0cap":1,"pop_max":12797394,"adm0name":"Bangladesh"},"geometry":{"type":"Point","coordinates":[90.406634,23.725006]}},{"type":"Feature","properties":{"name":"Luanda","adm0cap":1,"pop_max":5172900,"adm0name":"Angola"},"geometry":{"type":"Point","coordinates":[13.232481,-8.83634]}},{"type":"Feature","properties":{"name":"Algiers","adm0cap":1,"pop_max":3354000,"adm0name":"Algeria"},"geometry":{"type":"Point","coordinates":[3.048607,36.765011]}},{"type":"Feature","properties":{"name":"Yangon","adm0cap":0,"pop_max":4088000,"adm0name":"Myanmar"},"geometry":{"type":"Point","coordinates":[96.164732,16.7853]}},{"type":"Feature","properties":{"name":"San Francisco","adm0cap":0,"pop_max":3450000,"adm0name":"United States of America"},"geometry":{"type":"Point","coordinates":[-122.3996,37.784263]}},{"type":"Feature","properties":{"name":"Denver","adm0cap":0,"pop_max":2313000,"adm0name":"United States of America"},"geometry":{"type":"Point","coordinates":[-104.985962,39.741134]}},{"type":"Feature","properties":{"name":"Houston","adm0cap":0,"pop_max":4459000,"adm0name":"United States of America"},"geometry":{"type":"Point","coordinates":[-95.348436,29.741273]}},{"type":"Feature","properties":{"name":"Miami","adm0cap":0,"pop_max":5585000,"adm0name":"United States of America"},"geometry":{"type":"Point","coordinates":[-80.226052,25.789557]}},{"type":"Feature","properties":{"name":"Atlanta","adm0cap":0,"pop_max":4506000,"adm0name":"United States of America"},"geometry":{"type":"Point","coordinates":[-84.367642,33.739457]}},{"type":"Feature","properties":{"name":"Chicago","adm0cap":0,"pop_max":8990000,"adm0name":"United States of America"},"geometry":{"type":"Point","coordinates":[-87.635237,41.847961]}},{"type":"Feature","properties":{"name":"Caracas","adm0cap":1,"pop_max":2985000,"adm0name":"Venezuela"},"geometry":{"type":"Point","coordinates":[-66.918983,10.502944]}},{"type":"Feature","properties":{"name":"Kyiv","adm0cap":1,"pop_max":2709000,"adm0name":"Ukraine"},"geometry":{"type":"Point","coordinates":[30.514682,50.435313]}},{"type":"Feature","properties":{"name":"Dubai","adm0cap":0,"pop_max":1379000,"adm0name":"United Arab Emirates"},"geometry":{"type":"Point","coordinates":[55.286946,25.214912]}},{"type":"Feature","properties":{"name":"Tashkent","adm0cap":1,"pop_max":2184000,"adm0name":"Uzbekistan"},"geometry":{"type":"Point","coordinates":[69.268823,41.303828]}},{"type":"Feature","properties":{"name":"Madrid","adm0cap":1,"pop_max":5567000,"adm0name":"Spain"},"geometry":{"type":"Point","coordinates":[-3.685297,40.401972]}},{"type":"Feature","properties":{"name":"Geneva","adm0cap":0,"pop_max":1240000,"adm0name":"Switzerland"},"geometry":{"type":"Point","coordinates":[6.140028,46.210008]}},{"type":"Feature","properties":{"name":"Stockholm","adm0cap":1,"pop_max":1264000,"adm0name":"Sweden"},"geometry":{"type":"Point","coordinates":[18.0663,59.324127]}},{"type":"Feature","properties":{"name":"Bangkok","adm0cap":1,"pop_max":6704000,"adm0name":"Thailand"},"geometry":{"type":"Point","coordinates":[100.514699,13.751945]}},{"type":"Feature","properties":{"name":"Lima","adm0cap":1,"pop_max":8012000,"adm0name":"Peru"},"geometry":{"type":"Point","coordinates":[-77.052008,-12.046067]}},{"type":"Feature","properties":{"name":"Dakar","adm0cap":1,"pop_max":2604000,"adm0name":"Senegal"},"geometry":{"type":"Point","coordinates":[-17.475076,14.717778]}},{"type":"Feature","properties":{"name":"Johannesburg","adm0cap":0,"pop_max":3435000,"adm0name":"South Africa"},"geometry":{"type":"Point","coordinates":[28.028064,-26.168099]}},{"type":"Feature","properties":{"name":"Amsterdam","adm0cap":1,"pop_max":1031000,"adm0name":"Netherlands"},"geometry":{"type":"Point","coordinates":[4.914694,52.351914]}},{"type":"Feature","properties":{"name":"Casablanca","adm0cap":0,"pop_max":3181000,"adm0name":"Morocco"},"geometry":{"type":"Point","coordinates":[-7.618313,33.601922]}},{"type":"Feature","properties":{"name":"Seoul","adm0cap":1,"pop_max":9796000,"adm0name":"South Korea"},"geometry":{"type":"Point","coordinates":[126.997785,37.568295]}},{"type":"Feature","properties":{"name":"Manila","adm0cap":1,"pop_max":11100000,"adm0name":"Philippines"},"geometry":{"type":"Point","coordinates":[120.980271,14.606105]}},{"type":"Feature","properties":{"name":"Monterrey","adm0cap":0,"pop_max":3712000,"adm0name":"Mexico"},"geometry":{"type":"Point","coordinates":[-100.331931,25.671941]}},{"type":"Feature","properties":{"name":"Berlin","adm0cap":1,"pop_max":3406000,"adm0name":"Germany"},"geometry":{"type":"Point","coordinates":[13.399603,52.523764]}},{"type":"Feature","properties":{"name":"Ürümqi","adm0cap":0,"pop_max":3575000,"adm0name":"China"},"geometry":{"type":"Point","coordinates":[87.57306,43.806958]}},{"type":"Feature","properties":{"name":"Chengdu","adm0cap":0,"pop_max":4123000,"adm0name":"China"},"geometry":{"type":"Point","coordinates":[104.068074,30.671946]}},{"type":"Feature","properties":{"name":"Ōsaka","adm0cap":0,"pop_max":11294000,"adm0name":"Japan"},"geometry":{"type":"Point","coordinates":[135.503754,34.691095]}},{"type":"Feature","properties":{"name":"Kinshasa","adm0cap":1,"pop_max":7843000,"adm0name":"Congo (Kinshasa)"},"geometry":{"type":"Point","coordinates":[15.313026,-4.327778]}},{"type":"Feature","properties":{"name":"New Delhi","adm0cap":1,"pop_max":317797,"adm0name":"India"},"geometry":{"type":"Point","coordinates":[77.19998,28.600023]}},{"type":"Feature","properties":{"name":"Bengaluru","adm0cap":0,"pop_max":6787000,"adm0name":"India"},"geometry":{"type":"Point","coordinates":[77.558064,12.971941]}},{"type":"Feature","properties":{"name":"Athens","adm0cap":1,"pop_max":3242000,"adm0name":"Greece"},"geometry":{"type":"Point","coordinates":[23.731375,37.985272]}},{"type":"Feature","properties":{"name":"Baghdad","adm0cap":1,"pop_max":5054000,"adm0name":"Iraq"},"geometry":{"type":"Point","coordinates":[44.391923,33.340594]}},{"type":"Feature","properties":{"name":"Addis Ababa","adm0cap":1,"pop_max":3100000,"adm0name":"Ethiopia"},"geometry":{"type":"Point","coordinates":[38.698059,9.035256]}},{"type":"Feature","properties":{"name":"Tehran","adm0cap":1,"pop_max":7873000,"adm0name":"Iran"},"geometry":{"type":"Point","coordinates":[51.422398,35.673889]}},{"type":"Feature","properties":{"name":"Vancouver","adm0cap":0,"pop_max":2313328,"adm0name":"Canada"},"geometry":{"type":"Point","coordinates":[-123.12359,49.275362]}},{"type":"Feature","properties":{"name":"Toronto","adm0cap":0,"pop_max":5213000,"adm0name":"Canada"},"geometry":{"type":"Point","coordinates":[-79.389459,43.664645]}},{"type":"Feature","properties":{"name":"Buenos Aires","adm0cap":1,"pop_max":12795000,"adm0name":"Argentina"},"geometry":{"type":"Point","coordinates":[-58.432513,-34.610715]}},{"type":"Feature","properties":{"name":"Kabul","adm0cap":1,"pop_max":3277000,"adm0name":"Afghanistan"},"geometry":{"type":"Point","coordinates":[69.181314,34.518636]}},{"type":"Feature","properties":{"name":"Vienna","adm0cap":1,"pop_max":2400000,"adm0name":"Austria"},"geometry":{"type":"Point","coordinates":[16.364693,48.201961]}},{"type":"Feature","properties":{"name":"Melbourne","adm0cap":0,"pop_max":4170000,"adm0name":"Australia"},"geometry":{"type":"Point","coordinates":[144.97307,-37.818086]}},{"type":"Feature","properties":{"name":"Taipei","adm0cap":1,"pop_max":6900273,"adm0name":"Taiwan"},"geometry":{"type":"Point","coordinates":[121.568333,25.035833]}},{"type":"Feature","properties":{"name":"Auckland","adm0cap":0,"pop_max":1377200,"adm0name":"New Zealand"},"geometry":{"type":"Point","coordinates":[174.763027,-36.848055]}},{"type":"Feature","properties":{"name":"Los Angeles","adm0cap":0,"pop_max":12500000,"adm0name":"United States of America"},"geometry":{"type":"Point","coordinates":[-118.231986,34.049219]}},{"type":"Feature","properties":{"name":"Washington,  D.C.","adm0cap":1,"pop_max":4338000,"adm0name":"United States of America"},"geometry":{"type":"Point","coordinates":[-77.011364,38.901495]}},{"type":"Feature","properties":{"name":"New York","adm0cap":0,"pop_max":19040000,"adm0name":"United States of America"},"geometry":{"type":"Point","coordinates":[-73.995718,40.721562]}},{"type":"Feature","properties":{"name":"London","adm0cap":1,"pop_max":8567000,"adm0name":"United Kingdom"},"geometry":{"type":"Point","coordinates":[-0.118668,51.501941]}},{"type":"Feature","properties":{"name":"Istanbul","adm0cap":0,"pop_max":10061000,"adm0name":"Turkey"},"geometry":{"type":"Point","coordinates":[28.974277,41.017602]}},{"type":"Feature","properties":{"name":"Riyadh","adm0cap":1,"pop_max":4465000,"adm0name":"Saudi Arabia"},"geometry":{"type":"Point","coordinates":[46.720487,24.634497]}},{"type":"Feature","properties":{"name":"Cape Town","adm0cap":1,"pop_max":3215000,"adm0name":"South Africa"},"geometry":{"type":"Point","coordinates":[18.433042,-33.918065]}},{"type":"Feature","properties":{"name":"Moscow","adm0cap":1,"pop_max":10452000,"adm0name":"Russia"},"geometry":{"type":"Point","coordinates":[37.613577,55.75411]}},{"type":"Feature","properties":{"name":"Mexico City","adm0cap":1,"pop_max":19028000,"adm0name":"Mexico"},"geometry":{"type":"Point","coordinates":[-99.132934,19.444388]}},{"type":"Feature","properties":{"name":"Lagos","adm0cap":0,"pop_max":9466000,"adm0name":"Nigeria"},"geometry":{"type":"Point","coordinates":[3.389585,6.445208]}},{"type":"Feature","properties":{"name":"Rome","adm0cap":1,"pop_max":3339000,"adm0name":"Italy"},"geometry":{"type":"Point","coordinates":[12.481313,41.897902]}},{"type":"Feature","properties":{"name":"Beijing","adm0cap":1,"pop_max":11106000,"adm0name":"China"},"geometry":{"type":"Point","coordinates":[116.394201,39.90172]}},{"type":"Feature","properties":{"name":"Nairobi","adm0cap":1,"pop_max":3010000,"adm0name":"Kenya"},"geometry":{"type":"Point","coordinates":[36.814711,-1.281401]}},{"type":"Feature","properties":{"name":"Jakarta","adm0cap":1,"pop_max":9125000,"adm0name":"Indonesia"},"geometry":{"type":"Point","coordinates":[106.827492,-6.172472]}},{"type":"Feature","properties":{"name":"Bogota","adm0cap":1,"pop_max":7772000,"adm0name":"Colombia"},"geometry":{"type":"Point","coordinates":[-74.08529,4.598369]}},{"type":"Feature","properties":{"name":"Cairo","adm0cap":1,"pop_max":11893000,"adm0name":"Egypt"},"geometry":{"type":"Point","coordinates":[31.248022,30.051906]}},{"type":"Feature","properties":{"name":"Shanghai","adm0cap":0,"pop_max":14987000,"adm0name":"China"},"geometry":{"type":"Point","coordinates":[121.434559,31.218398]}},{"type":"Feature","properties":{"name":"Tokyo","adm0cap":1,"pop_max":35676000,"adm0name":"Japan"},"geometry":{"type":"Point","coordinates":[139.749462,35.686963]}},{"type":"Feature","properties":{"name":"Mumbai","adm0cap":0,"pop_max":18978000,"adm0name":"India"},"geometry":{"type":"Point","coordinates":[72.875839,19.068408]}},{"type":"Feature","properties":{"name":"Paris","adm0cap":1,"pop_max":9904000,"adm0name":"France"},"geometry":{"type":"Point","coordinates":[2.352992,48.858092]}},{"type":"Feature","properties":{"name":"Santiago","adm0cap":1,"pop_max":5720000,"adm0name":"Chile"},"geometry":{"type":"Point","coordinates":[-70.650504,-33.440205]}},{"type":"Feature","properties":{"name":"Kolkata","adm0cap":0,"pop_max":14787000,"adm0name":"India"},"geometry":{"type":"Point","coordinates":[88.369126,22.569579]}},{"type":"Feature","properties":{"name":"Rio de Janeiro","adm0cap":0,"pop_max":11748000,"adm0name":"Brazil"},"geometry":{"type":"Point","coordinates":[-43.212117,-22.907308]}},{"type":"Feature","properties":{"name":"São Paulo","adm0cap":0,"pop_max":18845000,"adm0name":"Brazil"},"geometry":{"type":"Point","coordinates":[-46.626966,-23.556734]}},{"type":"Feature","properties":{"name":"Sydney","adm0cap":0,"pop_max":4630000,"adm0name":"Australia"},"geometry":{"type":"Point","coordinates":[151.212548,-33.871373]}},{"type":"Feature","properties":{"name":"Singapore","adm0cap":1,"pop_max":5183700,"adm0name":"Singapore"},"geometry":{"type":"Point","coordinates":[103.853875,1.294979]}},{"type":"Feature","properties":{"name":"Hong Kong","adm0cap":0,"pop_max":7206000,"adm0name":"Hong Kong S.A.R."},"geometry":{"type":"Point","coordinates":[114.183064,22.306927]}}],"bbox":[-175.2205645,-41.2920679923151,179.2166471,64.1434594631703]}